OBJECT_NAME,OBJECT_ID,EPOCH,MEAN_MOTION,ECCENTRICITY,INCLINATION,RA_OF_ASC_NODE,ARG_OF_PERICENTER,MEAN_ANOMALY,EPHEMERIS_TYPE,CLASSIFICATION_TYPE,NORAD_CAT_ID,ELEMENT_SET_NO,REV_AT_EPOCH,BSTAR,MEAN_MOTION_DOT,MEAN_MOTION_DDOT
BEIDOU-3S IGSO-1S (C31),2015-019A,2026-07-13T14:57:15.384672,1.00301762,.00386582,49.1434,295.1438,197.4315,114.4487,0,U,40549,999,4133,0,-.169E-5,0
GPS BIIF-10 (PRN 08),2015-033A,2026-07-22T02:57:00.536832,2.00554225,.01154995,53.9562,265.6444,30.3091,330.4232,0,U,40730,999,8069,0,-.21E-6,0
BEIDOU-3S M2S (C58),2015-037A,2026-07-21T03:37:46.111296,1.86231942,.00095989,54.8384,300.8761,256.5759,103.3515,0,U,40748,999,7475,0,-.1E-5,0
BEIDOU-3S M1S (C57),2015-037B,2026-07-20T06:44:12.503328,1.86254901,.00026146,54.8358,300.8934,62.5237,297.5378,0,U,40749,999,7474,0,-.99E-6,0
GSAT0206 (GALILEO 10),2015-045B,2026-07-20T07:20:29.624352,1.70473732,.0002088,54.9380,220.6893,330.0131,30.0144,0,U,40890,999,6760,0,.58E-6,0
BEIDOU-3S IGSO-2S (C56),2015-053A,2026-07-22T15:10:47.786592,1.00252107,.0065894,49.1658,258.3562,193.8013,168.7106,0,U,40938,999,3971,0,-.89E-6,0
GPS BIIF-11 (PRN 10),2015-062A,2026-07-20T16:21:37.268640,2.00567122,.01130898,56.9821,29.5218,230.8511,128.1725,0,U,41019,999,7850,0,-.86E-6,0
GSAT-15 (GAGAN/PRN 139),2015-065A,2026-07-22T11:45:59.335776,1.00271481,.00036062,0.0994,263.2486,179.4604,127.5282,0,U,41028,999,3915,0,-.254E-5,0
GSAT0209 (GALILEO 12),2015-079A,2026-07-19T21:18:19.364832,1.70473671,.00046186,55.8457,100.3644,358.4074,1.6290,0,U,41174,999,6533,0,-.39E-6,0
GSAT0208 (GALILEO 11),2015-079B,2026-07-21T20:49:39.727488,1.70473606,.00042062,55.8455,100.3069,2.1198,357.9162,0,U,41175,999,6578,0,-.47E-6,0
IRNSS-1E,2016-003A,2026-07-21T00:43:29.481312,1.00275296,.0019282,33.3051,59.2585,176.3074,185.9195,0,U,41241,999,3842,0,-.317E-5,0
GPS BIIF-12 (PRN 32),2016-007A,2026-07-20T18:32:46.533984,2.00575241,.00966493,55.5446,88.1275,247.5642,111.4594,0,U,41328,999,7651,0,-.59E-6,0
COSMOS 2514 (751),2016-008A,2026-07-20T14:27:49.472352,2.13102623,.00124841,64.9994,311.8597,201.8566,158.1123,0,U,41330,999,8133,0,-.85E-6,0
BEIDOU-2 IGSO-6 (C13),2016-021A,2026-06-26T02:38:38.671584,1.00258926,.0057558,60.2385,37.9495,231.0163,137.2672,0,U,41434,999,3757,0,-.145E-5,0
IRNSS-1G,2016-027A,2026-07-22T13:38:50.803584,1.00265918,.0005793,5.2809,96.6559,13.4106,164.5538,0,U,41469,999,3753,0,-.336E-5,0
GSAT0211 (GALILEO 14),2016-030A,2026-07-20T05:33:31.703616,1.70473740,.00034438,55.0891,220.7852,318.9851,41.0285,0,U,41549,999,6323,0,.57E-6,0
GSAT0210 (GALILEO 13),2016-030B,2026-07-21T15:53:19.309056,1.70473953,.00047159,55.0875,220.7441,247.5267,112.4667,0,U,41550,999,6325,0,.67E-6,0
BEIDOU-2 G7 (C03),2016-037A,2026-07-22T15:16:09.771744,1.00270266,.00061561,1.8061,69.5594,1.8546,208.5568,0,U,41586,999,724,0,-.351E-5,0
EUTELSAT 117 WEST B (WAAS/PRN 131),2016-038B,2026-07-22T11:40:38.727840,1.00275290,.00002692,0.0061,166.5957,341.2172,210.5892,0,U,41589,999,3701,0,-.9E-7,0
GSAT0207 (GALILEO 15),2016-069A,2026-07-21T22:34:35.273856,1.70473718,.00044937,55.5185,100.1241,340.0542,19.9624,0,U,41859,999,5999,0,-.48E-6,0
GSAT0212 (GALILEO 16),2016-069B,2026-07-21T04:58:48.525312,1.70473851,.00044069,55.5158,100.1394,15.8741,344.1750,0,U,41860,999,6023,0,-.46E-6,0
GSAT0213 (GALILEO 17),2016-069C,2026-07-22T03:52:09.801984,1.70474392,.00038148,55.5184,100.1209,320.5981,39.4080,0,U,41861,999,6011,0,-.48E-6,0
GSAT0214 (GALILEO 18),2016-069D,2026-07-21T03:13:28.463808,1.70473784,.00031418,55.5164,100.1420,335.1519,24.8684,0,U,41862,999,6022,0,-.45E-6,0
SES-15 (WAAS/PRN 133),2017-026A,2026-07-22T12:06:38.635776,1.00268122,.00005808,0.0287,320.6475,129.2600,262.8394,0,U,42709,999,778,0,.64E-6,0
QZS-2 (QZSS/PRN 194),2017-028A,2026-07-22T10:34:28.869888,1.00274888,.07567047,39.3767,242.6339,269.6876,88.9804,0,U,42738,999,798,0,-.12E-5,0
QZS-3 (QZSS/PRN 199),2017-048A,2026-07-22T12:40:38.595936,1.00269245,.00028501,0.0590,203.2900,283.6707,130.4854,0,U,42917,999,3261,0,-.344E-5,0
COSMOS 2522 (752),2017-055A,2026-07-20T10:33:59.590656,2.13101801,.00108849,64.0809,190.7524,240.6370,119.2556,0,U,42939,999,6868,0,.84E-6,0
QZS-4 (QZSS/PRN 195),2017-062A,2026-07-21T06:10:27.954336,1.00289434,.07469394,40.0879,343.0509,268.6822,279.3148,0,U,42965,999,3214,0,-.358E-5,0
BEIDOU-3 M1 (C19),2017-069A,2026-07-20T23:04:14.085696,1.86231306,.0008832,56.7221,61.9715,327.7311,32.2769,0,U,43001,999,5923,0,-.79E-6,0
BEIDOU-3 M2 (C20),2017-069B,2026-07-20T21:36:08.493120,1.86230310,.00078073,56.7212,62.0097,355.9026,4.1531,0,U,43002,999,5922,0,-.79E-6,0
GSAT0215 (GALILEO 19),2017-079A,2026-07-21T14:58:16.716576,1.70474444,.00037652,55.0665,220.5584,269.3113,90.6885,0,U,43055,999,5357,0,.67E-6,0
